{
  "type": "FeatureCollection",
  "features": [
    {
      "type": "Feature",
      "geometry": {
        "type": "Point",
        "coordinates": [
          -84.0907,
          9.9281
        ]
      },
      "properties": {
        "id": "san_jose",
        "label_en": "San José",
        "label_es": "San José",
        "node_type": "place",
        "node_subtype": "city",
        "mapped": true,
        "parent_event": null,
        "sequence_value": null,
        "year_start": null,
        "year_end": null,
        "source_location": null,
        "target_location": null,
        "directed_location": false,
        "source_other": null,
        "target_other": null,
        "directed_other": false,
        "description_en": null,
        "description_es": null,
        "panel_html": false,
        "image_path": null,
        "source": null,
        "citation": null,
        "page": null,
        "country": "Costa Rica"
      }
    },
    {
      "type": "Feature",
      "geometry": {
        "type": "Point",
        "coordinates": [
          -84.2141,
          10.0162
        ]
      },
      "properties": {
        "id": "alajuela",
        "label_en": "Alajuela",
        "label_es": "Alajuela",
        "node_type": "place",
        "node_subtype": "city",
        "mapped": true,
        "parent_event": null,
        "sequence_value": null,
        "year_start": null,
        "year_end": null,
        "source_location": null,
        "target_location": null,
        "directed_location": false,
        "source_other": null,
        "target_other": null,
        "directed_other": false,
        "description_en": null,
        "description_es": null,
        "panel_html": false,
        "image_path": null,
        "source": null,
        "citation": null,
        "page": null,
        "country": "Costa Rica"
      }
    },
    {
      "type": "Feature",
      "geometry": {
        "type": "Point",
        "coordinates": [
          -83.6819,
          9.9003
        ]
      },
      "properties": {
        "id": "turrialba",
        "label_en": "Turrialba",
        "label_es": "Turrialba",
        "node_type": "place",
        "node_subtype": "city",
        "mapped": true,
        "parent_event": null,
        "sequence_value": null,
        "year_start": null,
        "year_end": null,
        "source_location": null,
        "target_location": null,
        "directed_location": false,
        "source_other": null,
        "target_other": null,
        "directed_other": false,
        "description_en": null,
        "description_es": null,
        "panel_html": false,
        "image_path": null,
        "source": null,
        "citation": null,
        "page": null,
        "country": "Costa Rica"
      }
    },
    {
      "type": "Feature",
      "geometry": {
        "type": "Point",
        "coordinates": [
          -83.0357,
          9.9922
        ]
      },
      "properties": {
        "id": "puerto_limon",
        "label_en": "Limón Port",
        "label_es": "Puerto Limón",
        "node_type": "infrastructure",
        "node_subtype": "port",
        "mapped": true,
        "parent_event": null,
        "sequence_value": null,
        "year_start": null,
        "year_end": null,
        "source_location": null,
        "target_location": null,
        "directed_location": false,
        "source_other": null,
        "target_other": null,
        "directed_other": false,
        "description_en": null,
        "description_es": null,
        "panel_html": false,
        "image_path": null,
        "source": null,
        "citation": null,
        "page": null,
        "country": "Costa Rica"
      }
    },
    {
      "type": "Feature",
      "geometry": {
        "type": "Point",
        "coordinates": [
          -83.0338,
          9.9902
        ]
      },
      "properties": {
        "id": "limon",
        "label_en": "Limón",
        "label_es": "Limón",
        "node_type": "place",
        "node_subtype": "city",
        "mapped": true,
        "parent_event": null,
        "sequence_value": null,
        "year_start": null,
        "year_end": null,
        "source_location": null,
        "target_location": null,
        "directed_location": false,
        "source_other": null,
        "target_other": null,
        "directed_other": false,
        "description_en": null,
        "description_es": null,
        "panel_html": false,
        "image_path": null,
        "source": null,
        "citation": null,
        "page": null,
        "country": "Costa Rica"
      }
    },
    {
      "type": "Feature",
      "geometry": {
        "type": "Point",
        "coordinates": [
          -71.0589,
          42.3601
        ]
      },
      "properties": {
        "id": "boston",
        "label_en": "Boston",
        "label_es": "Boston",
        "node_type": "place",
        "node_subtype": "city",
        "mapped": true,
        "parent_event": null,
        "sequence_value": null,
        "year_start": null,
        "year_end": null,
        "source_location": null,
        "target_location": null,
        "directed_location": false,
        "source_other": null,
        "target_other": null,
        "directed_other": false,
        "description_en": null,
        "description_es": null,
        "panel_html": false,
        "image_path": null,
        "source": null,
        "citation": null,
        "page": null,
        "country": "United States"
      }
    },
    {
      "type": "Feature",
      "geometry": {
        "type": "Point",
        "coordinates": [
          -71.0495,
          42.3603
        ]
      },
      "properties": {
        "id": "port_boston",
        "label_en": "Port of Boston",
        "label_es": "Puerto de Boston",
        "node_type": "infrastructure",
        "node_subtype": "port",
        "mapped": true,
        "parent_event": null,
        "sequence_value": null,
        "year_start": null,
        "year_end": null,
        "source_location": null,
        "target_location": null,
        "directed_location": false,
        "source_other": null,
        "target_other": null,
        "directed_other": false,
        "description_en": null,
        "description_es": null,
        "panel_html": false,
        "image_path": null,
        "source": null,
        "citation": null,
        "page": null,
        "country": "United States"
      }
    },
    {
      "type": "Feature",
      "geometry": {
        "type": "Point",
        "coordinates": [
          -83.5069,
          10.097
        ]
      },
      "properties": {
        "id": "siquirres",
        "label_en": "Siquirres",
        "label_es": "Siquirres",
        "node_type": "place",
        "node_subtype": "city",
        "mapped": true,
        "parent_event": null,
        "sequence_value": null,
        "year_start": null,
        "year_end": null,
        "source_location": null,
        "target_location": null,
        "directed_location": false,
        "source_other": null,
        "target_other": null,
        "directed_other": false,
        "description_en": null,
        "description_es": null,
        "panel_html": false,
        "image_path": null,
        "source": null,
        "citation": null,
        "page": null,
        "country": "Costa Rica"
      }
    },
    {
      "type": "Feature",
      "geometry": {
        "type": "Point",
        "coordinates": [
          -90.0715,
          29.9499
        ]
      },
      "properties": {
        "id": "port_new_orleans",
        "label_en": "Port of New Orleans",
        "label_es": "Puerto de Nueva Orleans",
        "node_type": "infrastructure",
        "node_subtype": "port",
        "mapped": true,
        "parent_event": null,
        "sequence_value": null,
        "year_start": null,
        "year_end": null,
        "source_location": null,
        "target_location": null,
        "directed_location": false,
        "source_other": null,
        "target_other": null,
        "directed_other": false,
        "description_en": null,
        "description_es": null,
        "panel_html": false,
        "image_path": null,
        "source": null,
        "citation": null,
        "page": null,
        "country": "United States"
      }
    },
    {
      "type": "Feature",
      "geometry": {
        "type": "Point",
        "coordinates": [
          -83.3,
          10.05
        ]
      },
      "properties": {
        "id": "atlantic_railroad",
        "label_en": "Atlantic Railroad",
        "label_es": "Ferrocarril al Atlántico",
        "node_type": "infrastructure",
        "node_subtype": "railroad",
        "mapped": true,
        "parent_event": null,
        "sequence_value": null,
        "year_start": 1890,
        "year_end": null,
        "source_location": null,
        "target_location": null,
        "directed_location": false,
        "source_other": null,
        "target_other": null,
        "directed_other": false,
        "description_en": "Owned by Minor C. Keith through a 99-year concession.",
        "description_es": "Propiedad de Minor C. Keith por concesión de 99 años.",
        "panel_html": true,
        "image_path": null,
        "source": null,
        "citation": null,
        "page": null,
        "country": "Costa Rica"
      }
    },
    {
      "type": "Feature",
      "geometry": {
        "type": "Point",
        "coordinates": [
          -83.15,
          10.02
        ]
      },
      "properties": {
        "id": "limon_rio_banano_railroad",
        "label_en": "Limón–Río Banano Railroad",
        "label_es": "Ferrocarril de Limón a Río Banano",
        "node_type": "infrastructure",
        "node_subtype": "railroad",
        "mapped": true,
        "parent_event": null,
        "sequence_value": null,
        "year_start": 1892,
        "year_end": null,
        "source_location": null,
        "target_location": null,
        "directed_location": false,
        "source_other": null,
        "target_other": null,
        "directed_other": false,
        "description_en": "Owned by the Northern Railway Co.",
        "description_es": "Propiedad de la Northern Railway Co.",
        "panel_html": false,
        "image_path": null,
        "source": null,
        "citation": null,
        "page": null,
        "country": "Costa Rica"
      }
    },
    {
      "type": "Feature",
      "geometry": {
        "type": "Point",
        "coordinates": [
          -83.4,
          10.08
        ]
      },
      "properties": {
        "id": "zent_railroad",
        "label_en": "Zent Railroad",
        "label_es": "Ferrocarril Zent",
        "node_type": "infrastructure",
        "node_subtype": "railroad",
        "mapped": true,
        "parent_event": null,
        "sequence_value": null,
        "year_start": 1894,
        "year_end": null,
        "source_location": null,
        "target_location": null,
        "directed_location": false,
        "source_other": null,
        "target_other": null,
        "directed_other": false,
        "description_en": "Owned by the Northern Railway Co.",
        "description_es": "Propiedad de la Northern Railway Co.",
        "panel_html": false,
        "image_path": null,
        "source": null,
        "citation": null,
        "page": null,
        "country": "Costa Rica"
      }
    },
    {
      "type": "Feature",
      "geometry": {
        "type": "Point",
        "coordinates": [
          -83.45,
          10.1
        ]
      },
      "properties": {
        "id": "la_luisa_railroad",
        "label_en": "La Luisa Railroad",
        "label_es": "Ramal La Luisa",
        "node_type": "infrastructure",
        "node_subtype": "railroad",
        "mapped": true,
        "parent_event": null,
        "sequence_value": null,
        "year_start": 1900,
        "year_end": null,
        "source_location": null,
        "target_location": null,
        "directed_location": false,
        "source_other": null,
        "target_other": null,
        "directed_other": false,
        "description_en": "Owned by the Northern Railway Co.",
        "description_es": "Propiedad de la Northern Railway Co.",
        "panel_html": false,
        "image_path": null,
        "source": null,
        "citation": null,
        "page": null,
        "country": "Costa Rica"
      }
    },
    {
      "type": "Feature",
      "geometry": {
        "type": "Point",
        "coordinates": [
          -84.5,
          9.9
        ]
      },
      "properties": {
        "id": "pacific_railroad",
        "label_en": "Pacific Railroad",
        "label_es": "Ferrocarril al Pacífico",
        "node_type": "infrastructure",
        "node_subtype": "railroad",
        "mapped": true,
        "parent_event": null,
        "sequence_value": null,
        "year_start": 1910,
        "year_end": null,
        "source_location": null,
        "target_location": null,
        "directed_location": false,
        "source_other": null,
        "target_other": null,
        "directed_other": false,
        "description_en": "Publicly-owned.",
        "description_es": "Propiedad del estado.",
        "panel_html": false,
        "image_path": null,
        "source": null,
        "citation": null,
        "page": null,
        "country": "Costa Rica"
      }
    },
    {
      "type": "Feature",
      "geometry": {
        "type": "Point",
        "coordinates": [
          -83.3554907,
          10.0877643
        ]
      },
      "properties": {
        "id": "26_millas",
        "label_en": "26 Millas",
        "label_es": "26 Millas",
        "node_type": "place",
        "node_subtype": "worker_site",
        "mapped": true,
        "parent_event": null,
        "sequence_value": null,
        "year_start": 1934,
        "year_end": 1934,
        "source_location": null,
        "target_location": null,
        "directed_location": false,
        "source_other": null,
        "target_other": null,
        "directed_other": false,
        "description_en": "Striking workers' headquarters during the Banana Strike of 1934.",
        "description_es": "Cuartel general de los huelguistas durante la huelga bananera de 1934.",
        "panel_html": false,
        "image_path": null,
        "source": "cerdas_1984",
        "citation": null,
        "page": "87",
        "country": "Costa Rica"
      }
    },
    {
      "type": "Feature",
      "geometry": null,
      "properties": {
        "id": "finca_los_angeles",
        "label_en": "Finca Los Angeles",
        "label_es": "Finca Los Angeles",
        "node_type": "place",
        "node_subtype": "plantation",
        "mapped": true,
        "parent_event": null,
        "sequence_value": null,
        "year_start": null,
        "year_end": null,
        "source_location": null,
        "target_location": null,
        "directed_location": false,
        "source_other": null,
        "target_other": null,
        "directed_other": false,
        "description_en": "Owned by Salomón Esna Miguel.",
        "description_es": "Propiedad de Salomón Esna Miguel.",
        "panel_html": false,
        "image_path": null,
        "source": "cerdas_1984",
        "citation": null,
        "page": "87",
        "country": "Costa Rica"
      }
    },
    {
      "type": "Feature",
      "geometry": {
        "type": "Point",
        "coordinates": [
          -83.39905,
          10.09411
        ]
      },
      "properties": {
        "id": "madre_de_dios",
        "label_en": "Madre de Dios",
        "label_es": "Madre de Dios",
        "node_type": "place",
        "node_subtype": null,
        "mapped": true,
        "parent_event": null,
        "sequence_value": null,
        "year_start": null,
        "year_end": null,
        "source_location": null,
        "target_location": null,
        "directed_location": false,
        "source_other": null,
        "target_other": null,
        "directed_other": false,
        "description_en": null,
        "description_es": null,
        "panel_html": false,
        "image_path": null,
        "source": null,
        "citation": null,
        "page": null,
        "country": "Costa Rica"
      }
    },
    {
      "type": "Feature",
      "geometry": {
        "type": "Point",
        "coordinates": [
          -83.79136,
          10.21544
        ]
      },
      "properties": {
        "id": "guapiles",
        "label_en": "Guápiles",
        "label_es": "Guápiles",
        "node_type": "place",
        "node_subtype": "city",
        "mapped": true,
        "parent_event": null,
        "sequence_value": null,
        "year_start": null,
        "year_end": null,
        "source_location": null,
        "target_location": null,
        "directed_location": false,
        "source_other": null,
        "target_other": null,
        "directed_other": false,
        "description_en": null,
        "description_es": null,
        "panel_html": false,
        "image_path": null,
        "source": null,
        "citation": null,
        "page": null,
        "country": "Costa Rica"
      }
    },
    {
      "type": "Feature",
      "geometry": {
        "type": "Point",
        "coordinates": [
          -83.40655,
          10.28565
        ]
      },
      "properties": {
        "id": "dos_bocas",
        "label_en": "Dos Bocas",
        "label_es": "Dos Bocas",
        "node_type": "place",
        "node_subtype": null,
        "mapped": true,
        "parent_event": null,
        "sequence_value": null,
        "year_start": null,
        "year_end": null,
        "source_location": null,
        "target_location": null,
        "directed_location": false,
        "source_other": null,
        "target_other": null,
        "directed_other": false,
        "description_en": null,
        "description_es": null,
        "panel_html": false,
        "image_path": null,
        "source": null,
        "citation": null,
        "page": null,
        "country": "Costa Rica"
      }
    },
    {
      "type": "Feature",
      "geometry": {
        "type": "Point",
        "coordinates": [
          -83.79019,
          10.51067
        ]
      },
      "properties": {
        "id": "la_fortuna",
        "label_en": "La Fortuna Plantation",
        "label_es": "Finca La Fortuna",
        "node_type": "place",
        "node_subtype": "plantation",
        "mapped": true,
        "parent_event": null,
        "sequence_value": null,
        "year_start": null,
        "year_end": null,
        "source_location": null,
        "target_location": null,
        "directed_location": false,
        "source_other": null,
        "target_other": null,
        "directed_other": false,
        "description_en": null,
        "description_es": null,
        "panel_html": false,
        "image_path": null,
        "source": null,
        "citation": null,
        "page": null,
        "country": "Costa Rica"
      }
    },
    {
      "type": "Feature",
      "geometry": {
        "type": "Point",
        "coordinates": [
          -83.37737,
          10.17947
        ]
      },
      "properties": {
        "id": "la_perla",
        "label_en": "La Perla Plantation",
        "label_es": "Finca La Perla",
        "node_type": "place",
        "node_subtype": "plantation",
        "mapped": true,
        "parent_event": null,
        "sequence_value": null,
        "year_start": null,
        "year_end": null,
        "source_location": null,
        "target_location": null,
        "directed_location": false,
        "source_other": null,
        "target_other": null,
        "directed_other": false,
        "description_en": null,
        "description_es": null,
        "panel_html": false,
        "image_path": null,
        "source": null,
        "citation": null,
        "page": null,
        "country": "Costa Rica"
      }
    },
    {
      "type": "Feature",
      "geometry": {
        "type": "Point",
        "coordinates": [
          -83.34175,
          10.08604
        ]
      },
      "properties": {
        "id": "sara",
        "label_en": "Sara Plantation (25 Millas)",
        "label_es": "Finca Sara (25 Millas)",
        "node_type": "place",
        "node_subtype": "plantation",
        "mapped": true,
        "parent_event": null,
        "sequence_value": null,
        "year_start": null,
        "year_end": null,
        "source_location": null,
        "target_location": null,
        "directed_location": false,
        "source_other": null,
        "target_other": null,
        "directed_other": false,
        "description_en": null,
        "description_es": null,
        "panel_html": false,
        "image_path": null,
        "source": null,
        "citation": null,
        "page": null,
        "country": "Costa Rica"
      }
    },
    {
      "type": "Feature",
      "geometry": {
        "type": "Point",
        "coordinates": [
          -83.32227,
          10.08187
        ]
      },
      "properties": {
        "id": "24_millas",
        "label_en": "24 Millas",
        "label_es": "24 Millas",
        "node_type": "place",
        "node_subtype": "plantation",
        "mapped": true,
        "parent_event": null,
        "sequence_value": null,
        "year_start": null,
        "year_end": null,
        "source_location": null,
        "target_location": null,
        "directed_location": false,
        "source_other": null,
        "target_other": null,
        "directed_other": false,
        "description_en": null,
        "description_es": null,
        "panel_html": false,
        "image_path": null,
        "source": null,
        "citation": null,
        "page": null,
        "country": "Costa Rica"
      }
    },
    {
      "type": "Feature",
      "geometry": {
        "type": "Point",
        "coordinates": [
          -82.61357,
          9.50167
        ]
      },
      "properties": {
        "id": "finca_costa_rica",
        "label_en": "Costa Rica Plantation",
        "label_es": "Finca Costa Rica",
        "node_type": "place",
        "node_subtype": "plantation",
        "mapped": true,
        "parent_event": null,
        "sequence_value": null,
        "year_start": null,
        "year_end": null,
        "source_location": null,
        "target_location": null,
        "directed_location": false,
        "source_other": null,
        "target_other": null,
        "directed_other": false,
        "description_en": "Furthermost plantation in the Atlantic region of Costa Rica, next to the Sixaola River.",
        "description_es": "Finca más remota en la región Atlántica, junto al río Sixaola.",
        "panel_html": false,
        "image_path": null,
        "source": "cerdas_1984",
        "citation": null,
        "page": "86–87",
        "country": "Costa Rica"
      }
    },
    {
      "type": "Feature",
      "geometry": {
        "type": "Point",
        "coordinates": [
          -83.3554907,
          10.0877643
        ]
      },
      "properties": {
        "id": "1934_banana_strike",
        "label_en": "Banana Strike of 1934",
        "label_es": "Huelga Bananera de 1934",
        "node_type": "event",
        "node_subtype": "strike",
        "mapped": true,
        "parent_event": "TRUE",
        "sequence_value": null,
        "year_start": 1934,
        "year_end": 1934,
        "source_location": null,
        "target_location": null,
        "directed_location": false,
        "source_other": null,
        "target_other": null,
        "directed_other": false,
        "description_en": null,
        "description_es": null,
        "panel_html": true,
        "image_path": null,
        "source": null,
        "citation": null,
        "page": null,
        "country": "Costa Rica"
      }
    },
    {
      "type": "Feature",
      "geometry": null,
      "properties": {
        "id": "ufco",
        "label_en": "United Fruit Company",
        "label_es": "United Fruit Company",
        "node_type": "institution",
        "node_subtype": "company",
        "mapped": false,
        "parent_event": null,
        "sequence_value": null,
        "year_start": 1899,
        "year_end": 1984,
        "source_location": null,
        "target_location": null,
        "directed_location": false,
        "source_other": null,
        "target_other": null,
        "directed_other": false,
        "description_en": null,
        "description_es": null,
        "panel_html": true,
        "image_path": null,
        "source": null,
        "citation": null,
        "page": null,
        "country": null
      }
    },
    {
      "type": "Feature",
      "geometry": null,
      "properties": {
        "id": "irca",
        "label_en": "International Railways of Central America",
        "label_es": "FFCC Internacionales de Centro America",
        "node_type": "institution",
        "node_subtype": "company",
        "mapped": false,
        "parent_event": null,
        "sequence_value": null,
        "year_start": 1904,
        "year_end": 1974,
        "source_location": null,
        "target_location": null,
        "directed_location": false,
        "source_other": null,
        "target_other": null,
        "directed_other": false,
        "description_en": null,
        "description_es": null,
        "panel_html": false,
        "image_path": null,
        "source": null,
        "citation": null,
        "page": null,
        "country": null
      }
    },
    {
      "type": "Feature",
      "geometry": null,
      "properties": {
        "id": "boston_fruit_co",
        "label_en": "Boston Fruit Company",
        "label_es": "Boston Fruit Company",
        "node_type": "institution",
        "node_subtype": "company",
        "mapped": false,
        "parent_event": null,
        "sequence_value": null,
        "year_start": 1885,
        "year_end": 1899,
        "source_location": null,
        "target_location": null,
        "directed_location": false,
        "source_other": null,
        "target_other": null,
        "directed_other": false,
        "description_en": null,
        "description_es": null,
        "panel_html": false,
        "image_path": null,
        "source": null,
        "citation": null,
        "page": null,
        "country": null
      }
    },
    {
      "type": "Feature",
      "geometry": {
        "type": "Point",
        "coordinates": [
          42.360278,
          -71.049722
        ]
      },
      "properties": {
        "id": "boston_fruit_hq",
        "label_en": "Boston Fruit Company HQ",
        "label_es": "Oficinas de Boston Fruit Company",
        "node_type": "infrastructure",
        "node_subtype": "office",
        "mapped": true,
        "parent_event": null,
        "sequence_value": null,
        "year_start": 1885,
        "year_end": 1899,
        "source_location": null,
        "target_location": null,
        "directed_location": false,
        "source_other": null,
        "target_other": null,
        "directed_other": false,
        "description_en": null,
        "description_es": null,
        "panel_html": false,
        "image_path": null,
        "source": null,
        "citation": null,
        "page": null,
        "country": "United States"
      }
    },
    {
      "type": "Feature",
      "geometry": null,
      "properties": {
        "id": "northern_railway_co",
        "label_en": "Northern Railway Company",
        "label_es": "Northern Railway Company",
        "node_type": "institution",
        "node_subtype": "company",
        "mapped": false,
        "parent_event": null,
        "sequence_value": null,
        "year_start": null,
        "year_end": null,
        "source_location": null,
        "target_location": null,
        "directed_location": false,
        "source_other": null,
        "target_other": null,
        "directed_other": false,
        "description_en": null,
        "description_es": null,
        "panel_html": false,
        "image_path": null,
        "source": null,
        "citation": null,
        "page": null,
        "country": "Costa Rica"
      }
    },
    {
      "type": "Feature",
      "geometry": null,
      "properties": {
        "id": "costa_rica_gov",
        "label_en": "Executive Branch of the Costa Rican Government",
        "label_es": "Poder Ejecutivo de Costa Rica",
        "node_type": "institution",
        "node_subtype": "state",
        "mapped": false,
        "parent_event": null,
        "sequence_value": null,
        "year_start": null,
        "year_end": null,
        "source_location": null,
        "target_location": null,
        "directed_location": false,
        "source_other": null,
        "target_other": null,
        "directed_other": false,
        "description_en": null,
        "description_es": null,
        "panel_html": false,
        "image_path": null,
        "source": null,
        "citation": null,
        "page": null,
        "country": "Costa Rica"
      }
    },
    {
      "type": "Feature",
      "geometry": null,
      "properties": {
        "id": "fuerza_publica",
        "label_en": "Costa Rican Police Forces",
        "label_es": "Fuerza Pública de Costa Rica",
        "node_type": "institution",
        "node_subtype": "state",
        "mapped": false,
        "parent_event": null,
        "sequence_value": null,
        "year_start": null,
        "year_end": null,
        "source_location": null,
        "target_location": null,
        "directed_location": false,
        "source_other": null,
        "target_other": null,
        "directed_other": false,
        "description_en": null,
        "description_es": null,
        "panel_html": false,
        "image_path": null,
        "source": null,
        "citation": null,
        "page": null,
        "country": "Costa Rica"
      }
    },
    {
      "type": "Feature",
      "geometry": null,
      "properties": {
        "id": "poder_judicial_cr",
        "label_en": "Judicial Branch of the Costa Rican Government",
        "label_es": "Poder Judicial de Costa Rica",
        "node_type": "institution",
        "node_subtype": "state",
        "mapped": false,
        "parent_event": null,
        "sequence_value": null,
        "year_start": null,
        "year_end": null,
        "source_location": null,
        "target_location": null,
        "directed_location": false,
        "source_other": null,
        "target_other": null,
        "directed_other": false,
        "description_en": null,
        "description_es": null,
        "panel_html": false,
        "image_path": null,
        "source": null,
        "citation": null,
        "page": null,
        "country": "Costa Rica"
      }
    },
    {
      "type": "Feature",
      "geometry": null,
      "properties": {
        "id": "partido_comunista_cr",
        "label_en": "Communist Party of Costa Rica",
        "label_es": "Partido Comunista de Costa Rica",
        "node_type": "institution",
        "node_subtype": "organization",
        "mapped": false,
        "parent_event": null,
        "sequence_value": null,
        "year_start": 1931,
        "year_end": null,
        "source_location": null,
        "target_location": null,
        "directed_location": false,
        "source_other": null,
        "target_other": null,
        "directed_other": false,
        "description_en": null,
        "description_es": null,
        "panel_html": false,
        "image_path": null,
        "source": null,
        "citation": null,
        "page": null,
        "country": "Costa Rica"
      }
    },
    {
      "type": "Feature",
      "geometry": null,
      "properties": {
        "id": "minor_keith",
        "label_en": "Minor C. Keith",
        "label_es": "Minor C. Keith",
        "node_type": "person",
        "node_subtype": "ufco_manager",
        "mapped": false,
        "parent_event": null,
        "sequence_value": null,
        "year_start": null,
        "year_end": null,
        "source_location": null,
        "target_location": null,
        "directed_location": false,
        "source_other": null,
        "target_other": null,
        "directed_other": false,
        "description_en": "Vice President of the United Fruit Company.",
        "description_es": "Vice-presidente de la United Fruit Company.",
        "panel_html": true,
        "image_path": null,
        "source": null,
        "citation": null,
        "page": null,
        "country": null
      }
    },
    {
      "type": "Feature",
      "geometry": null,
      "properties": {
        "id": "chittenden",
        "label_en": "George P. Chittenden",
        "label_es": "George P. Chittenden",
        "node_type": "person",
        "node_subtype": "ufco_manager",
        "mapped": false,
        "parent_event": null,
        "sequence_value": null,
        "year_start": null,
        "year_end": null,
        "source_location": null,
        "target_location": null,
        "directed_location": false,
        "source_other": null,
        "target_other": null,
        "directed_other": false,
        "description_en": "General Manager of the United Fruit Company",
        "description_es": null,
        "panel_html": false,
        "image_path": null,
        "source": null,
        "citation": null,
        "page": null,
        "country": null
      }
    },
    {
      "type": "Feature",
      "geometry": null,
      "properties": {
        "id": "manuel_mora",
        "label_en": "Manuel Mora",
        "label_es": "Manuel Mora",
        "node_type": "person",
        "node_subtype": "politician",
        "mapped": false,
        "parent_event": null,
        "sequence_value": null,
        "year_start": null,
        "year_end": null,
        "source_location": null,
        "target_location": null,
        "directed_location": false,
        "source_other": null,
        "target_other": null,
        "directed_other": false,
        "description_en": null,
        "description_es": null,
        "panel_html": false,
        "image_path": null,
        "source": null,
        "citation": null,
        "page": null,
        "country": "Costa Rica"
      }
    },
    {
      "type": "Feature",
      "geometry": null,
      "properties": {
        "id": "calufa",
        "label_en": "Carlos Luis Fallas",
        "label_es": "Carlos Luis Fallas",
        "node_type": "person",
        "node_subtype": "organizer",
        "mapped": false,
        "parent_event": null,
        "sequence_value": null,
        "year_start": null,
        "year_end": null,
        "source_location": null,
        "target_location": null,
        "directed_location": false,
        "source_other": null,
        "target_other": null,
        "directed_other": false,
        "description_en": null,
        "description_es": null,
        "panel_html": false,
        "image_path": null,
        "source": null,
        "citation": null,
        "page": null,
        "country": "Costa Rica"
      }
    },
    {
      "type": "Feature",
      "geometry": null,
      "properties": {
        "id": "fran_jimenez_guerra",
        "label_en": "Fran Jiménez Guerra",
        "label_es": "Fran Jiménez Guerra",
        "node_type": "person",
        "node_subtype": "organizer",
        "mapped": false,
        "parent_event": null,
        "sequence_value": null,
        "year_start": null,
        "year_end": null,
        "source_location": null,
        "target_location": null,
        "directed_location": false,
        "source_other": null,
        "target_other": null,
        "directed_other": false,
        "description_en": "Plantation owner.",
        "description_es": "Dueño de finca bananera.",
        "panel_html": false,
        "image_path": null,
        "source": "cerdas_1984",
        "citation": null,
        "page": "86",
        "country": "Costa Rica"
      }
    },
    {
      "type": "Feature",
      "geometry": null,
      "properties": {
        "id": "arturo_volio",
        "label_en": "Arturo Volio",
        "label_es": "Arturo Volio",
        "node_type": "person",
        "node_subtype": "plantation_owner",
        "mapped": false,
        "parent_event": null,
        "sequence_value": null,
        "year_start": null,
        "year_end": null,
        "source_location": null,
        "target_location": null,
        "directed_location": false,
        "source_other": null,
        "target_other": null,
        "directed_other": false,
        "description_en": "Plantation owner.",
        "description_es": "Dueño de finca bananera.",
        "panel_html": false,
        "image_path": null,
        "source": "cerdas_1984",
        "citation": null,
        "page": "86",
        "country": "Costa Rica"
      }
    },
    {
      "type": "Feature",
      "geometry": null,
      "properties": {
        "id": "villafranca",
        "label_en": "Villafranca",
        "label_es": "Villafranca",
        "node_type": "person",
        "node_subtype": "plantation_owner",
        "mapped": false,
        "parent_event": null,
        "sequence_value": null,
        "year_start": null,
        "year_end": null,
        "source_location": null,
        "target_location": null,
        "directed_location": false,
        "source_other": null,
        "target_other": null,
        "directed_other": false,
        "description_en": "Plantation owner of Los Angeles Plantation.",
        "description_es": "Dueño de Finca Los Angeles.",
        "panel_html": false,
        "image_path": null,
        "source": "cerdas_1984",
        "citation": null,
        "page": "87",
        "country": "Costa Rica"
      }
    },
    {
      "type": "Feature",
      "geometry": null,
      "properties": {
        "id": "salomon_esna_miguel",
        "label_en": "Salomón Esna Miguel",
        "label_es": "Salomón Esna Miguel",
        "node_type": "person",
        "node_subtype": "plantation_owner",
        "mapped": false,
        "parent_event": null,
        "sequence_value": null,
        "year_start": null,
        "year_end": null,
        "source_location": null,
        "target_location": null,
        "directed_location": false,
        "source_other": null,
        "target_other": null,
        "directed_other": false,
        "description_en": null,
        "description_es": null,
        "panel_html": false,
        "image_path": null,
        "source": null,
        "citation": null,
        "page": null,
        "country": "Costa Rica"
      }
    },
    {
      "type": "Feature",
      "geometry": {
        "type": "Point",
        "coordinates": [
          -84.0907,
          9.9281
        ]
      },
      "properties": {
        "id": "cerdas_1984",
        "label_en": "Cerdas Mora, Jaime. \"La huelga bananera de 1934. Anécdotas y enseñanzas de uno de sus dirigentes principales.\" Revista ABRA 3, no. 2 (1984)",
        "label_es": "Cerdas Mora, Jaime. \"La huelga bananera de 1934. Anécdotas y enseñanzas de uno de sus dirigentes principales.\" Revista ABRA 3, no. 2 (1984)",
        "node_type": "source",
        "node_subtype": "worker_testimony",
        "mapped": true,
        "parent_event": null,
        "sequence_value": null,
        "year_start": 1984,
        "year_end": 1984,
        "source_location": null,
        "target_location": null,
        "directed_location": false,
        "source_other": null,
        "target_other": null,
        "directed_other": false,
        "description_en": null,
        "description_es": null,
        "panel_html": true,
        "image_path": null,
        "source": "cerdas_1984",
        "citation": "Cerdas Mora, Jaime. \"La huelga bananera de 1934. Anécdotas y enseñanzas de uno de sus dirigentes principales.\" Revista ABRA 3, no. 2 (1984)",
        "page": "87",
        "country": "Costa Rica"
      }
    },
    {
      "type": "Feature",
      "geometry": null,
      "properties": {
        "id": "calufa_deportation",
        "label_en": "Judicial Confinement of Carlos Luis Fallas to Limón",
        "label_es": "Confinamiento judicial de Carlos Luis Fallas a Limón",
        "node_type": "event",
        "node_subtype": "legal",
        "mapped": false,
        "parent_event": "1934_banana_strike",
        "sequence_value": 0,
        "year_start": 1933,
        "year_end": 1933,
        "source_location": "alajuela",
        "target_location": "limon",
        "directed_location": true,
        "source_other": "poder_judicial_cr",
        "target_other": "calufa",
        "directed_other": false,
        "description_en": "Following a strike organized in Alajuela, judicial authorities sentenced Carlos Luis Fallas to confinement (confinamiento) in Limón, where he arrives in December 1933. This was a common legal penalty at the time, used to isolate political and labor leaders from their active organizational bases. While in Limón, Fallas utilized his previous experience working for the banana companies to inform the Communist Party leadership in San José about the labor and sanitary conditions in the Atlantic zone.",
        "description_es": "Tras una huelga que organizó en Alajuela, las autoridades judiciales sentenciaron a Carlos Luis Fallas a la pena de confinamiento en Limón, adonde llega en diciembre de 1933. Esta era una sanción legal común en la época, utilizada para aislar a líderes políticos y sindicales de sus bases organizativas activas. Durante su estancia en Limón, Fallas aprovechó su experiencia previa trabajando para las bananeras para informar a la dirigencia del Partido Comunista en San José sobre las condiciones laborales y sanitarias en la zona atlántica.",
        "panel_html": false,
        "image_path": null,
        "source": "cerdas_1984",
        "citation": null,
        "page": "86",
        "country": "Costa Rica"
      }
    },
    {
      "type": "Feature",
      "geometry": {
        "type": "Point",
        "coordinates": [
          -82.9,
          9.55
        ]
      },
      "properties": {
        "id": "malaria_remote_1934",
        "label_en": "Malaria Outbreak: Remote Plantations",
        "label_es": "Brote de malaria: Fincas remotas",
        "node_type": "event",
        "node_subtype": "disease",
        "mapped": true,
        "parent_event": "1934_banana_strike",
        "sequence_value": 1,
        "year_start": 1934,
        "year_end": 1934,
        "source_location": null,
        "target_location": null,
        "directed_location": false,
        "source_other": null,
        "target_other": null,
        "directed_other": false,
        "description_en": "Jaime Cerdas Mora states that in remote plantations, malaria cases were frequent due to workers living in flooded barracks (ranchones). He estimates that half of the workers were unable to work half of the time because of the disease.",
        "description_es": "Jaime Cerdas Mora afirma que en fincas remotas, los casos de malaria eran frecuentes debido a que los trabajadores vivían en barracones (ranchones) inundados. Estima que la mitad de los trabajadores no podía laborar la mitad del tiempo a causa de la enfermedad.",
        "panel_html": false,
        "image_path": null,
        "source": "cerdas_1984",
        "citation": null,
        "page": "87",
        "country": "Costa Rica"
      }
    },
    {
      "type": "Feature",
      "geometry": {
        "type": "Point",
        "coordinates": [
          -83.7919,
          10.2177
        ]
      },
      "properties": {
        "id": "malaria_guapiles_1934",
        "label_en": "Malaria Outbreak: Guápiles Sector",
        "label_es": "Brote de malaria: Sector Guápiles",
        "node_type": "event",
        "node_subtype": "disease",
        "mapped": true,
        "parent_event": "1934_banana_strike",
        "sequence_value": 1,
        "year_start": 1934,
        "year_end": 1934,
        "source_location": null,
        "target_location": null,
        "directed_location": false,
        "source_other": null,
        "target_other": null,
        "directed_other": false,
        "description_en": "Jaime Cerdas Mora reports a lack of medical infrastructure in the Guápiles sector. He notes that there were no resident doctors or local hospitals, leaving workers without immediate care during malaria outbreaks.",
        "description_es": "Jaime Cerdas Mora informa sobre la falta de infraestructura médica en el sector de Guápiles. Señala que no había médicos residentes ni hospitales locales, lo que dejaba a los trabajadores sin atención inmediata durante los brotes de malaria.",
        "panel_html": false,
        "image_path": null,
        "source": "cerdas_1984",
        "citation": null,
        "page": "87",
        "country": "Costa Rica"
      }
    },
    {
      "type": "Feature",
      "geometry": null,
      "properties": {
        "id": "sick_workers_1934_001",
        "label_en": "Sanitary Displacement: Remote Plantations to Limón",
        "label_es": "Desplazamiento sanitario: Fincas remotas a Limón",
        "node_type": "migration",
        "node_subtype": "displacement",
        "mapped": false,
        "parent_event": "1934_banana_strike",
        "sequence_value": 2,
        "year_start": 1934,
        "year_end": 1934,
        "source_location": "malaria_remote_1934",
        "target_location": "limon",
        "directed_location": true,
        "source_other": null,
        "target_other": null,
        "directed_other": false,
        "description_en": "Cerdas explains that workers in remote areas, such as those near the Sixaola river, were forced to travel to the city of Limón to find a hospital. This required sick laborers to travel long distances from the plantations to the provincial capital.",
        "description_es": "Cerdas explica que los trabajadores de zonas remotas, como las cercanas al río Sixaola, se veían obligados a trasladarse a la ciudad de Limón para encontrar un hospital. Esto requería que los obreros enfermos viajaran largas distancias desde las fincas hasta la capital provincial.",
        "panel_html": false,
        "image_path": null,
        "source": "cerdas_1984",
        "citation": null,
        "page": "87",
        "country": "Costa Rica"
      }
    },
    {
      "type": "Feature",
      "geometry": null,
      "properties": {
        "id": "sick_workers_1934_002",
        "label_en": "Sanitary Displacement: Guápiles to Siquirres",
        "label_es": "Desplazamiento sanitario: De Guápiles a Siquirres",
        "node_type": "migration",
        "node_subtype": "displacement",
        "mapped": false,
        "parent_event": "1934_banana_strike",
        "sequence_value": 2,
        "year_start": 1934,
        "year_end": 1934,
        "source_location": "malaria_guapiles_1934",
        "target_location": "siquirres",
        "directed_location": true,
        "source_other": null,
        "target_other": null,
        "directed_other": false,
        "description_en": "Cerdas describes workers from Guápiles traveling to Siquirres for treatment. He identifies the facility there as a dispensary staffed by a nurse rather than a doctor, where quinine was the only medicine provided.",
        "description_es": "Cerdas describe a los trabajadores de Guápiles viajando a Siquirres para recibir tratamiento. Identifica la instalación allí como un dispensario atendido por un enfermero en lugar de un médico, donde la quinina era el único medicamento suministrado.",
        "panel_html": false,
        "image_path": null,
        "source": "cerdas_1984",
        "citation": null,
        "page": "87",
        "country": "Costa Rica"
      }
    },
    {
      "type": "Feature",
      "geometry": null,
      "properties": {
        "id": "comisariatos_1934_strike",
        "label_en": "Commissaries and the Double Exploitation of Workers",
        "label_es": "Los comisariatos y la doble explotación obrera",
        "node_type": "event",
        "node_subtype": null,
        "mapped": true,
        "parent_event": "1934_banana_strike",
        "sequence_value": 3,
        "year_start": 1934,
        "year_end": 1934,
        "source_location": null,
        "target_location": null,
        "directed_location": false,
        "source_other": null,
        "target_other": null,
        "directed_other": false,
        "description_en": "UFCo and plantation-linked comisariatos formed a system of economic dependency across the Atlantic banana zone. Workers were frequently paid with coupons or tokens redeemable only at plantation commissaries, where goods were sold at inflated prices. According to Jaime Cerdas, this arrangement compounded already poor wages and living conditions, reinforcing what he described as a “double exploitation” of banana workers through both labor and controlled consumption.",
        "description_es": "Los comisariatos vinculados a la UFCo y a las fincas bananeras formaban un sistema de dependencia económica a lo largo de la zona bananera atlántica. Con frecuencia, los trabajadores eran pagados mediante cupones o chapas que solo podían utilizarse en los comisariatos de las plantaciones, donde los productos se vendían a precios elevados. Según el relato de Jaime Cerdas, este sistema agravaba los bajos salarios y las malas condiciones de vida, produciendo una “doble explotación” de los trabajadores bananeros a través tanto del trabajo como del consumo controlado.",
        "panel_html": false,
        "image_path": null,
        "source": "cerdas_1984",
        "citation": null,
        "page": null,
        "country": "Costa Rica"
      }
    },
    {
      "type": "Feature",
      "geometry": null,
      "properties": {
        "id": "demands_strike_1934",
        "label_en": "Presentation and Rejection of the List of Demands",
        "label_es": "Presentación y rechazo del pliego de peticiones",
        "node_type": "information",
        "node_subtype": "correspondence",
        "mapped": false,
        "parent_event": "1934_banana_strike",
        "sequence_value": 4,
        "year_start": 1934,
        "year_end": 1934,
        "source_location": "san_jose",
        "target_location": "puerto_limon",
        "directed_location": true,
        "source_other": "partido_comunista_cr",
        "target_other": "chittenden",
        "directed_other": true,
        "description_en": "Based on the account by Jaime Cerdas Mora, the Communist Party drafted a formal list of demands (pliego de peticiones) and organized strike committees across the various banana plantations. The document was presented to the manager of the United Fruit Company, George P. Chittenden, who refused to receive it.",
        "description_es": "Según el relato de Jaime Cerdas Mora, el Partido Comunista redactó un pliego de peticiones formal y organizó comités de huelga en las diversas fincas bananeras. El documento fue presentado al gerente de la United Fruit Company, George P. Chittenden, quien se negó a recibirlo.",
        "panel_html": false,
        "image_path": null,
        "source": "cerdas_1984",
        "citation": null,
        "page": "87",
        "country": "Costa Rica"
      }
    },
    {
      "type": "Feature",
      "geometry": null,
      "properties": {
        "id": "worker_meeting_01_1934",
        "label_en": "Leadership Deployment to 26 Millas",
        "label_es": "Despliegue de la dirigencia hacia 26 Millas",
        "node_type": "event",
        "node_subtype": "movement",
        "mapped": false,
        "parent_event": "1934_banana_strike",
        "sequence_value": 5,
        "year_start": 1934,
        "year_end": 1934,
        "source_location": "limon",
        "target_location": "26_millas",
        "directed_location": true,
        "source_other": null,
        "target_other": null,
        "directed_other": false,
        "description_en": "Following the rejection of the workers’ petition by UFCo manager George P. Chittenden. Workers held a meeting around August 7, 1934 and agreed to go on strike. Strike committees had already been organized across multiple plantations, and Carlos Luis Fallas and Jaime Cerdas were tasked with directing the movement. Traveling by train to Madre de Dios and then on foot toward  26 Millas, they established the principal operational headquarters of the strike near the finca Los Ángeles. According to Cerdas’ account, delegations from plantations across the Atlantic banana corridor were already gathering there upon their arrival.",
        "description_es": "Tras el rechazo del pliego de peticiones de los trabajadores por parte del gerente de la UFCo, George P. Chittenden. Los obreros sostuvieron una reunión cerca del 7 de agosto de 1934, en la que se acordó ir a huelga. Para entonces, ya se habían organizado comités de huelga en múltiples plantaciones, y Carlos Luis Fallas y Jaime Cerdas fueron encargados de dirigir el movimiento. Viajando en tren hasta Madre de Dios y luego a pie hacia 26 Millas, establecieron el principal cuartel operativo de la huelga cerca de la finca Los Ángeles. Según el relato de Cerdas, delegaciones de plantaciones a lo largo del corredor bananero atlántico ya se estaban reuniendo allí al momento de su llegada.",
        "panel_html": false,
        "image_path": null,
        "source": "cerdas_1984",
        "citation": null,
        "page": "87",
        "country": "Costa Rica"
      }
    },
    {
      "type": "Feature",
      "geometry": null,
      "properties": {
        "id": "declaration_strike_1934",
        "label_en": "Declaration of Strike",
        "label_es": "Declaración de la huelga",
        "node_type": "information",
        "node_subtype": "correspondence",
        "mapped": true,
        "parent_event": "1934_banana_strike",
        "sequence_value": 6,
        "year_start": 1934,
        "year_end": 1934,
        "source_location": "26_millas",
        "target_location": "puerto_limon",
        "directed_location": false,
        "source_other": null,
        "target_other": null,
        "directed_other": false,
        "description_en": "On August 9, 1934, strike leaders formally declared the beginning of the banana strike. The declaration marked the transition from localized labor grievances to a coordinated regional movement across the Atlantic banana zone.",
        "description_es": "El 9 de agosto de 1934, los dirigentes huelguistas declararon formalmente el inicio de la huelga bananera. La declaración marcó la transición de reclamos laborales localizados hacia un movimiento coordinado a escala regional en la zona bananera atlántica.",
        "panel_html": false,
        "image_path": null,
        "source": "cerdas_1984",
        "citation": null,
        "page": "87–88",
        "country": "Costa Rica"
      }
    },
    {
      "type": "Feature",
      "geometry": {
        "type": "Point",
        "coordinates": [
          -83.299,
          10.065
        ]
      },
      "properties": {
        "id": "1934_strike_marker_001",
        "label_en": "Paralysis of the Atlantic Region",
        "label_es": "La paralización de la zona atlántica",
        "node_type": "event",
        "node_subtype": "strike",
        "mapped": true,
        "parent_event": "1934_banana_strike",
        "sequence_value": 7,
        "year_start": 1934,
        "year_end": 1934,
        "source_location": null,
        "target_location": null,
        "directed_location": false,
        "source_other": null,
        "target_other": null,
        "directed_other": false,
        "description_en": "By the day following its formal declaration, the 1934 banana strike had spread across the Atlantic banana zone. According to Jaime Cerdas, plantations throughout the region had already joined the movement, paralyzing production, transportation, and UFCo operations across the corridor.",
        "description_es": "Para el día siguiente de su declaración formal, la huelga bananera de 1934 ya se había extendido por toda la zona bananera atlántica. Según Jaime Cerdas, plantaciones a lo largo de la región se habían incorporado al movimiento, paralizando la producción, el transporte y las operaciones de la UFCo en todo el corredor bananero.",
        "panel_html": false,
        "image_path": null,
        "source": "cerdas_1984",
        "citation": null,
        "page": "88",
        "country": null
      }
    },
    {
      "type": "Feature",
      "geometry": {
        "type": "Point",
        "coordinates": [
          -83.05,
          10.0
        ]
      },
      "properties": {
        "id": "1934_strike_marker_002",
        "label_en": "Paralysis of the Atlantic Region",
        "label_es": "La paralización de la zona atlántica",
        "node_type": "event",
        "node_subtype": "strike",
        "mapped": true,
        "parent_event": "1934_banana_strike",
        "sequence_value": 7,
        "year_start": 1934,
        "year_end": 1934,
        "source_location": null,
        "target_location": null,
        "directed_location": false,
        "source_other": null,
        "target_other": null,
        "directed_other": false,
        "description_en": "By the day following its formal declaration, the 1934 banana strike had spread across the Atlantic banana zone. According to Jaime Cerdas, plantations throughout the region had already joined the movement, paralyzing production, transportation, and UFCo operations across the corridor.",
        "description_es": "Para el día siguiente de su declaración formal, la huelga bananera de 1934 ya se había extendido por toda la zona bananera atlántica. Según Jaime Cerdas, plantaciones a lo largo de la región se habían incorporado al movimiento, paralizando la producción, el transporte y las operaciones de la UFCo en todo el corredor bananero.",
        "panel_html": false,
        "image_path": null,
        "source": "cerdas_1984",
        "citation": null,
        "page": "88",
        "country": null
      }
    },
    {
      "type": "Feature",
      "geometry": {
        "type": "Point",
        "coordinates": [
          -82.958,
          9.978
        ]
      },
      "properties": {
        "id": "1934_strike_marker_003",
        "label_en": "Paralysis of the Atlantic Region",
        "label_es": "La paralización de la zona atlántica",
        "node_type": "event",
        "node_subtype": "strike",
        "mapped": true,
        "parent_event": "1934_banana_strike",
        "sequence_value": 7,
        "year_start": 1934,
        "year_end": 1934,
        "source_location": null,
        "target_location": null,
        "directed_location": false,
        "source_other": null,
        "target_other": null,
        "directed_other": false,
        "description_en": "By the day following its formal declaration, the 1934 banana strike had spread across the Atlantic banana zone. According to Jaime Cerdas, plantations throughout the region had already joined the movement, paralyzing production, transportation, and UFCo operations across the corridor.",
        "description_es": "Para el día siguiente de su declaración formal, la huelga bananera de 1934 ya se había extendido por toda la zona bananera atlántica. Según Jaime Cerdas, plantaciones a lo largo de la región se habían incorporado al movimiento, paralizando la producción, el transporte y las operaciones de la UFCo en todo el corredor bananero.",
        "panel_html": false,
        "image_path": null,
        "source": "cerdas_1984",
        "citation": null,
        "page": "88",
        "country": null
      }
    },
    {
      "type": "Feature",
      "geometry": {
        "type": "Point",
        "coordinates": [
          -83.12,
          9.98
        ]
      },
      "properties": {
        "id": "1934_strike_marker_004",
        "label_en": "Paralysis of the Atlantic Region",
        "label_es": "La paralización de la zona atlántica",
        "node_type": "event",
        "node_subtype": "strike",
        "mapped": true,
        "parent_event": "1934_banana_strike",
        "sequence_value": 7,
        "year_start": 1934,
        "year_end": 1934,
        "source_location": null,
        "target_location": null,
        "directed_location": false,
        "source_other": null,
        "target_other": null,
        "directed_other": false,
        "description_en": "By the day following its formal declaration, the 1934 banana strike had spread across the Atlantic banana zone. According to Jaime Cerdas, plantations throughout the region had already joined the movement, paralyzing production, transportation, and UFCo operations across the corridor.",
        "description_es": "Para el día siguiente de su declaración formal, la huelga bananera de 1934 ya se había extendido por toda la zona bananera atlántica. Según Jaime Cerdas, plantaciones a lo largo de la región se habían incorporado al movimiento, paralizando la producción, el transporte y las operaciones de la UFCo en todo el corredor bananero.",
        "panel_html": false,
        "image_path": null,
        "source": "cerdas_1984",
        "citation": null,
        "page": "88",
        "country": null
      }
    },
    {
      "type": "Feature",
      "geometry": {
        "type": "Point",
        "coordinates": [
          -82.621,
          9.527
        ]
      },
      "properties": {
        "id": "1934_strike_marker_005",
        "label_en": "Paralysis of the Atlantic Region",
        "label_es": "La paralización de la zona atlántica",
        "node_type": "event",
        "node_subtype": "strike",
        "mapped": true,
        "parent_event": "1934_banana_strike",
        "sequence_value": 7,
        "year_start": 1934,
        "year_end": 1934,
        "source_location": null,
        "target_location": null,
        "directed_location": false,
        "source_other": null,
        "target_other": null,
        "directed_other": false,
        "description_en": "By the day following its formal declaration, the 1934 banana strike had spread across the Atlantic banana zone. According to Jaime Cerdas, plantations throughout the region had already joined the movement, paralyzing production, transportation, and UFCo operations across the corridor.",
        "description_es": "Para el día siguiente de su declaración formal, la huelga bananera de 1934 ya se había extendido por toda la zona bananera atlántica. Según Jaime Cerdas, plantaciones a lo largo de la región se habían incorporado al movimiento, paralizando la producción, el transporte y las operaciones de la UFCo en todo el corredor bananero.",
        "panel_html": false,
        "image_path": null,
        "source": "cerdas_1984",
        "citation": null,
        "page": "88",
        "country": null
      }
    },
    {
      "type": "Feature",
      "geometry": null,
      "properties": {
        "id": "habeas_corpus_1934",
        "label_en": "Habeas Corpus for Arrested Workers",
        "label_es": "Habeas corpus de huelguistas arrestados",
        "node_type": "event",
        "node_subtype": "legal",
        "mapped": false,
        "parent_event": "1934_banana_strike",
        "sequence_value": 9,
        "year_start": 1934,
        "year_end": 1934,
        "source_location": "worker_arrests_1934",
        "target_location": "siquirres",
        "directed_location": true,
        "source_other": "manuel_mora",
        "target_other": "poder_judicial",
        "directed_other": false,
        "description_en": "Manuel Mora relies on his congressional immunity to avoid arrest and invoke habeas corpus in the Siquirres court to release workers arrested during the Banana Strike of 1934.",
        "description_es": "Manuel Mora recurre a su inmunidad legislativa para evadir el arresto y presentar recursos de habeas corpus en el Tribunal de Siquirres para liberar a los huelguistas arrestados durante la Huelga Bananera de 1934.",
        "panel_html": false,
        "image_path": null,
        "source": "cerdas_1984",
        "citation": null,
        "page": "88",
        "country": "Costa Rica"
      }
    },
    {
      "type": "Feature",
      "geometry": {
        "type": "Point",
        "coordinates": [
          -83.54,
          10.1
        ]
      },
      "properties": {
        "id": "worker_arrests_1934",
        "label_en": "Arrest of Striking Workers",
        "label_es": "Arresto de huelguistas",
        "node_type": "event",
        "node_subtype": "coercion",
        "mapped": true,
        "parent_event": "1934_banana_strike",
        "sequence_value": 8,
        "year_start": 1934,
        "year_end": 1934,
        "source_location": null,
        "target_location": null,
        "directed_location": true,
        "source_other": "fuerza_publica",
        "target_other": "1934_banana_strike",
        "directed_other": false,
        "description_en": "To stop the strike of 1934, the mayor orders the police to arrest striking workers as they transit public roads.",
        "description_es": "Para detener la huelga de 1934, el Gobierno de Costa Rica ordena a la Fuerza Pública detener a los huelguistas que transiten por los caminos públicos.",
        "panel_html": false,
        "image_path": null,
        "source": "cerdas_1984",
        "citation": null,
        "page": "88",
        "country": "Costa Rica"
      }
    },
    {
      "type": "Feature",
      "geometry": null,
      "properties": {
        "id": "police_bananas_1934_001",
        "label_en": "Police Cut and Gather Bananas",
        "label_es": "La Fuerza Pública corta y recoge el banano",
        "node_type": "event",
        "node_subtype": "coercion",
        "mapped": false,
        "parent_event": "1934_banana_strike",
        "sequence_value": 10,
        "year_start": 1934,
        "year_end": 1934,
        "source_location": "limon",
        "target_location": "26_millas",
        "directed_location": true,
        "source_other": "fuerza_publica",
        "target_other": "1934_banana_strike",
        "directed_other": false,
        "description_en": "Police forces are sent to cut and collect bananas to replace the workers and contain the strike.",
        "description_es": "La Fuerza Pública es enviada a cortar y recoger banano para reemplazar a los huelguistas y contener la huega.",
        "panel_html": false,
        "image_path": null,
        "source": "cerdas_1984",
        "citation": null,
        "page": "88",
        "country": "Costa Rica"
      }
    },
    {
      "type": "Feature",
      "geometry": null,
      "properties": {
        "id": "police_bananas_1934_002",
        "label_en": "Workers Destroy Bananas",
        "label_es": "Obreros destruyen banano",
        "node_type": "event",
        "node_subtype": "violence",
        "mapped": false,
        "parent_event": "1934_banana_strike",
        "sequence_value": 11,
        "year_start": 1934,
        "year_end": 1934,
        "source_location": "26_millas",
        "target_location": "limon",
        "directed_location": true,
        "source_other": "1934_banana_strike",
        "target_other": "fuerza_publica",
        "directed_other": false,
        "description_en": "Workers respond by destroying 10 hectares of bananas at  night, preventing any good bananas from reaching Limón.",
        "description_es": "Los huelguistas responden destruyendo 10 hectáreas de banano en la noche, evitando que llegue banano bueno a Limón.",
        "panel_html": false,
        "image_path": null,
        "source": "cerdas_1984",
        "citation": null,
        "page": "88",
        "country": "Costa Rica"
      }
    },
    {
      "type": "Feature",
      "geometry": null,
      "properties": {
        "id": "fallas_deposition_1934",
        "label_en": "Deposition of Carlos Luis Fallas",
        "label_es": "Deposición de Carlos Luis Fallas",
        "node_type": "event",
        "node_subtype": "legal",
        "mapped": false,
        "parent_event": "1934_banana_strike",
        "sequence_value": 13,
        "year_start": 1934,
        "year_end": 1934,
        "source_location": "26_millas",
        "target_location": "palacio_nacional",
        "directed_location": true,
        "source_other": null,
        "target_other": null,
        "directed_other": false,
        "description_en": "Carlos Luis Fallas traveled from the Atlantic zone to San José to provide testimony before the government. Appearing at the National Palace, Fallas presented a formal account of the workers' precarious living conditions, specifically citing a daily wage of ₡4 and a 50% labor incapacity rate due to endemic malaria.",
        "description_es": "Carlos Luis Fallas se trasladó desde la zona atlántica hasta San José para brindar testimonio ante el gobierno. Al comparecer en el Palacio Nacional, Fallas presentó un informe formal sobre las precarias condiciones de vida de los trabajadores, citando específicamente un salario diario de ₡4 y una tasa de incapacidad laboral del 50% debido a la malaria endémica.",
        "panel_html": false,
        "image_path": null,
        "source": "cerdas_1984",
        "citation": null,
        "page": "89",
        "country": "Costa Rica"
      }
    },
    {
      "type": "Feature",
      "geometry": {
        "type": "Point",
        "coordinates": [
          -84.085564,
          9.935447
        ]
      },
      "properties": {
        "id": "palacio_nacional",
        "label_en": "Palacio Nacional (1858–1955)",
        "label_es": "Palacio Nacional (1858–1955)",
        "node_type": "place",
        "node_subtype": "state",
        "mapped": true,
        "parent_event": null,
        "sequence_value": null,
        "year_start": 1855,
        "year_end": 1958,
        "source_location": null,
        "target_location": null,
        "directed_location": false,
        "source_other": null,
        "target_other": null,
        "directed_other": false,
        "description_en": "Established as the primary seat of the Costa Rican State, this Neoclassical structure housed the Legislative Power and the Secretariats of State (Executive Branch). For 103 years, it functioned as the centralized administrative hub for national governance until its demolition in 1958 to facilitate the construction of the Central Bank of Costa Rica.",
        "description_es": "Establecido como la sede principal del Estado costarricense, esta estructura neoclásica albergó el Poder Legislativo y las Secretarías de Estado (Poder Ejecutivo). Durante 103 años, funcionó como el núcleo administrativo centralizado del gobierno nacional hasta su demolición en 1958 para dar paso a la construcción del Banco Central de Costa Rica.",
        "panel_html": false,
        "image_path": null,
        "source": null,
        "citation": null,
        "page": null,
        "country": "Costa Rica"
      }
    },
    {
      "type": "Feature",
      "geometry": {
        "type": "Point",
        "coordinates": [
          -84.085564,
          9.935447
        ]
      },
      "properties": {
        "id": "jimenez_meetings_1934",
        "label_en": "Executive Mediation of the 1934 Banana Strike",
        "label_es": "Mediación del Poder Ejecutivo en la huelga bananera de 1934",
        "node_type": "event",
        "node_subtype": "mediation",
        "mapped": true,
        "parent_event": "1934_banana_strike",
        "sequence_value": 12,
        "year_start": 1934,
        "year_end": 1934,
        "source_location": null,
        "target_location": null,
        "directed_location": false,
        "source_other": null,
        "target_other": null,
        "directed_other": false,
        "description_en": "The Executive Power, headed by President Ricardo Jiménez Oreamuno, convened a series of consultative meetings at the National Palace to mediate the 1934 banana strike. During these sessions, the Presidency interrogated key stakeholders, including plantation owner Arturo Volio. Upon Volio’s admission of the prevailing labor conditions, the Executive formally attributed responsibility for the industrial action to the banana companies’ management practices.",
        "description_es": "El Poder Ejecutivo, encabezado por el presidente Ricardo Jiménez Oreamuno, convocó una serie de reuniones consultivas en el Palacio Nacional para mediar en la huelga bananera del Atlántico de 1934. Durante estas sesiones, la Presidencia interrogó a actores clave, incluido el finquero Arturo Volio. Tras la admisión de Volio sobre las condiciones laborales imperantes, el Ejecutivo atribuyó formalmente la responsabilidad del conflicto a las prácticas de gestión de las empresas bananeras.",
        "panel_html": false,
        "image_path": null,
        "source": "cerdas_1984",
        "citation": null,
        "page": "89",
        "country": "Costa Rica"
      }
    },
    {
      "type": "Feature",
      "geometry": null,
      "properties": {
        "id": "santos_inspection_1934",
        "label_en": "Ministerial Site Inspection of 26 Millas",
        "label_es": "Inspección ministerial en 26 Millas",
        "node_type": "event",
        "node_subtype": "mediation",
        "mapped": false,
        "parent_event": "1934_banana_strike",
        "sequence_value": 13,
        "year_start": 1934,
        "year_end": 1934,
        "source_location": "palacio_nacional",
        "target_location": "26_millas",
        "directed_location": true,
        "source_other": null,
        "target_other": null,
        "directed_other": false,
        "description_en": "The Minister of Government and Labor, Santos León Herrera, accompanied by the Chief of the Labor Section, Zayas Bazán, conducted a field inspection at the 26 Millas plantation during the absence of Carlos Luis Fallas. The visit functioned as a direct observation of the living quarters (ranchones), where the delegation encountered flooded dwellings and active cases of malaria.\nThe event is noted for its impact on the Minister’s legislative perspective. After witnessing the conditions and the confinement of workers, León Herrera explicitly conceded a divergence between \"legality\" and \"justice.\"",
        "description_es": "El Ministro de Gobernación y Trabajo, Santos León Herrera, acompañado por el Jefe de la Sección de Trabajo, Zayas Bazán, realizó una inspección de campo en la finca 26 Millas durante la ausencia de Carlos Luis Fallas. La visita funcionó como una observación directa de los alojamientos (ranchones), donde la delegación constató viviendas inundadas y casos activos de malaria.\nEl evento se destaca por su impacto en la perspectiva legislativa del Ministro. Tras presenciar las condiciones y el confinamiento de los trabajadores, León Herrera admitió explícitamente una divergencia entre lo \"legal\" y lo \"justo\".",
        "panel_html": false,
        "image_path": null,
        "source": "cerdas_1984",
        "citation": null,
        "page": "89",
        "country": "Costa Rica"
      }
    },
    {
      "type": "Feature",
      "geometry": null,
      "properties": {
        "id": "sabotage_1934",
        "label_en": "Countermanded Order of Sabotage",
        "label_es": "Contraorden de sabotaje",
        "node_type": "event",
        "node_subtype": "violence",
        "mapped": false,
        "parent_event": "1934_banana_strike",
        "sequence_value": 14,
        "year_start": 1934,
        "year_end": 1934,
        "source_location": null,
        "target_location": null,
        "directed_location": false,
        "source_other": null,
        "target_other": null,
        "directed_other": false,
        "description_en": "During a period of heightened tension in the 1934 strike, Carlos Luis Fallas—acting on unverified intelligence regarding approaching authorities—issued a written order to destroy a bridge to impede troop movement. Jaime Cerdas, co-leader of the movement, disputed the decision and unilaterally issued a countermand, nullifying the sabotage order without Fallas's immediate knowledge.",
        "description_es": "Durante un periodo de alta tensión en la huelga de 1934, Carlos Luis Fallas—actuando bajo inteligencia no verificada sobre el avance de las autoridades—emitió una orden escrita para destruir un puente y así impedir el movimiento de tropas. Jaime Cerdas, codirigente del movimiento, cuestionó la decisión y emitió unilateralmente una contraorden, anulando el sabotaje sin el conocimiento inmediato de Fallas.",
        "panel_html": false,
        "image_path": null,
        "source": "cerdas_1984",
        "citation": null,
        "page": "90",
        "country": "Costa Rica"
      }
    },
    {
      "type": "Feature",
      "geometry": {
        "type": "Point",
        "coordinates": [
          -74.24765,
          11.00703
        ]
      },
      "properties": {
        "id": "banana_massacre",
        "label_en": "Banana Massacre",
        "label_es": "Masacre de las bananeras",
        "node_type": "event",
        "node_subtype": "strike",
        "mapped": true,
        "parent_event": null,
        "sequence_value": null,
        "year_start": 1928,
        "year_end": 1928,
        "source_location": null,
        "target_location": null,
        "directed_location": false,
        "source_other": null,
        "target_other": null,
        "directed_other": false,
        "description_en": "A strike that began on November 12, 1928, results in the massacre of 47–2,000 people by the Colombian Army.",
        "description_es": null,
        "panel_html": false,
        "image_path": null,
        "source": null,
        "citation": null,
        "page": null,
        "country": "Colombia"
      }
    },
    {
      "type": "Feature",
      "geometry": {
        "type": "Point",
        "coordinates": [
          -79.68,
          9.08
        ]
      },
      "properties": {
        "id": "panama_strike_1960",
        "label_en": "First Panamanian Banana Strike",
        "label_es": "Primera huelga bananera panameña",
        "node_type": "event",
        "node_subtype": "strike",
        "mapped": true,
        "parent_event": null,
        "sequence_value": null,
        "year_start": 1960,
        "year_end": 1960,
        "source_location": null,
        "target_location": null,
        "directed_location": false,
        "source_other": null,
        "target_other": null,
        "directed_other": false,
        "description_en": null,
        "description_es": null,
        "panel_html": false,
        "image_path": null,
        "source": null,
        "citation": null,
        "page": null,
        "country": "Panama"
      }
    },
    {
      "type": "Feature",
      "geometry": {
        "type": "Point",
        "coordinates": [
          -82.86206,
          8.27775
        ]
      },
      "properties": {
        "id": "panama_strike_1964",
        "label_en": "Second Panamanian Banana Strike",
        "label_es": "Segunda huelga bananera panameña",
        "node_type": "event",
        "node_subtype": "strike",
        "mapped": true,
        "parent_event": null,
        "sequence_value": null,
        "year_start": 1964,
        "year_end": 1964,
        "source_location": null,
        "target_location": null,
        "directed_location": false,
        "source_other": null,
        "target_other": null,
        "directed_other": false,
        "description_en": null,
        "description_es": null,
        "panel_html": false,
        "image_path": null,
        "source": null,
        "citation": null,
        "page": null,
        "country": "Panama"
      }
    }
  ]
}