{
  "type": "FeatureCollection",
  "features": [
    {
      "type": "Feature",
      "geometry": {
        "type": "MultiPolygon",
        "coordinates": [
          [
            [
              [
                -82.98873845556398,
                9.857568617447155
              ],
              [
                -82.99598020288411,
                9.853574188724114
              ],
              [
                -82.99894400680665,
                9.853574188724114
              ],
              [
                -83.00045386918227,
                9.851149960119177
              ],
              [
                -83.00246701901646,
                9.843215996537253
              ],
              [
                -83.0028025439888,
                9.835281842328138
              ],
              [
                -83.00123676078447,
                9.83384926640183
              ],
              [
                -83.00101307746955,
                9.830322899210142
              ],
              [
                -83.00571042708265,
                9.82382106111917
              ],
              [
                -82.99497362796703,
                9.811698649013644
              ],
              [
                -82.99463810299467,
                9.817153789385078
              ],
              [
                -82.99329600310521,
                9.81720889135467
              ],
              [
                -82.99128285327104,
                9.81605174806769
              ],
              [
                -82.98753615774633,
                9.8158313393641
              ],
              [
                -82.98485195796745,
                9.81588644155375
              ],
              [
                -82.98457235382381,
                9.82001907964367
              ],
              [
                -82.98418090802271,
                9.821231310364194
              ],
              [
                -82.96818755100675,
                9.837871483051243
              ],
              [
                -82.96667768863114,
                9.838642861471142
              ],
              [
                -82.96555927205661,
                9.839634631078859
              ],
              [
                -82.9647763804544,
                9.841397769696073
              ],
              [
                -82.96449677631078,
                9.841507965547157
              ],
              [
                -82.9697533342111,
                9.845970866614387
              ],
              [
                -82.97551317957002,
                9.849166487103064
              ],
              [
                -82.98121710410017,
                9.8549515834038
              ],
              [
                -82.98873845556398,
                9.857568617447155
              ]
            ]
          ]
        ]
      },
      "properties": {
        "node_id": "zent_plantation",
        "label_en": null,
        "label_es": null,
        "year_start": 1899,
        "year_end": 1930
      }
    }
  ]
}