{
"type": "FeatureCollection",
"name": "plantations_geometry",
"crs": { "type": "name", "properties": { "name": "urn:ogc:def:crs:OGC:1.3:CRS84" } },
"features": [
{ "type": "Feature", "properties": { "id": 1 }, "geometry": { "type": "MultiPolygon", "coordinates": [ [ [ [ -82.988738455563976, 9.857568617447155 ], [ -82.995980202884112, 9.853574188724114 ], [ -82.998944006806653, 9.853574188724114 ], [ -83.000453869182266, 9.851149960119177 ], [ -83.002467019016464, 9.843215996537253 ], [ -83.002802543988807, 9.835281842328138 ], [ -83.001236760784465, 9.833849266401829 ], [ -83.001013077469551, 9.830322899210142 ], [ -83.005710427082647, 9.823821061119171 ], [ -82.994973627967028, 9.811698649013644 ], [ -82.994638102994671, 9.817153789385078 ], [ -82.993296003105215, 9.817208891354669 ], [ -82.991282853271045, 9.816051748067689 ], [ -82.987536157746334, 9.815831339364101 ], [ -82.98485195796745, 9.815886441553751 ], [ -82.984572353823808, 9.82001907964367 ], [ -82.984180908022708, 9.821231310364194 ], [ -82.96818755100675, 9.837871483051243 ], [ -82.966677688631137, 9.838642861471142 ], [ -82.965559272056609, 9.839634631078859 ], [ -82.964776380454396, 9.841397769696073 ], [ -82.964496776310781, 9.841507965547157 ], [ -82.969753334211106, 9.845970866614387 ], [ -82.975513179570015, 9.849166487103064 ], [ -82.981217104100168, 9.8549515834038 ], [ -82.988738455563976, 9.857568617447155 ] ] ] ] } }
]
}
