{
  "type": "FeatureCollection",
  "features": [
    {
      "type": "Feature",
      "geometry": {
        "type": "MultiLineString",
        "coordinates": [
          [
            [
              -83.02967984500738,
              9.996633551811804
            ],
            [
              -83.03387390716193,
              9.995373781119035
            ],
            [
              -83.03267859944789,
              9.989838993031753
            ],
            [
              -83.04006014883986,
              9.986968300922504
            ],
            [
              -83.05610243658097,
              9.975547239115132
            ],
            [
              -83.06499384834858,
              9.956215198731185
            ],
            [
              -83.03790020683029,
              9.929693742490509
            ],
            [
              -83.03840349428883,
              9.925231977758854
            ],
            [
              -83.04981134334916,
              9.92688449030535
            ],
            [
              -83.05450869296222,
              9.922092180945132
            ],
            [
              -83.06524549207784,
              9.919282863546492
            ],
            [
              -83.06490996710548,
              9.916308265927727
            ],
            [
              -83.04880476843205,
              9.90705378960584
            ],
            [
              -83.04561728119462,
              9.910524248834447
            ],
            [
              -83.03370614467573,
              9.909202173458233
            ],
            [
              -83.02783445765938,
              9.902095927022646
            ],
            [
              -83.02364039550487,
              9.898625378651925
            ],
            [
              -83.0226338205878,
              9.894658992737833
            ],
            [
              -83.00417994710783,
              9.872181901732409
            ],
            [
              -82.99847602257768,
              9.86821519686043
            ],
            [
              -82.9884102734068,
              9.865570700404074
            ],
            [
              -82.94848280169559,
              9.834992169873166
            ],
            [
              -82.9228990225529,
              9.800030005560776
            ],
            [
              -82.9157691168902,
              9.786804584910687
            ],
            [
              -82.91610464186256,
              9.778869079706643
            ],
            [
              -82.91769838548127,
              9.775397236604316
            ],
            [
              -82.92885459081235,
              9.774405274774306
            ],
            [
              -82.93137102810505,
              9.77572788989015
            ],
            [
              -82.93397134664087,
              9.775479899956599
            ],
            [
              -82.93539732777342,
              9.772173349840044
            ],
            [
              -82.9338874653978,
              9.768205446318644
            ],
            [
              -82.9397591524141,
              9.768949431832986
            ],
            [
              -82.9440370958117,
              9.763410833113767
            ],
            [
              -82.94311440213772,
              9.753986737014507
            ],
            [
              -82.94563083943044,
              9.75192001363877
            ],
            [
              -82.9484828016955,
              9.752002682819823
            ],
            [
              -82.95485777617041,
              9.747042495677656
            ],
            [
              -82.95812914465095,
              9.74621579064809
            ],
            [
              -82.96240708804858,
              9.746133120032447
            ],
            [
              -82.96282649426401,
              9.743570320786036
            ],
            [
              -82.96240708804858,
              9.740180781872967
            ],
            [
              -82.96274261302094,
              9.736377843583329
            ],
            [
              -82.96668503144618,
              9.73422833756429
            ],
            [
              -82.98371292379356,
              9.73183079529984
            ],
            [
              -82.98539054865539,
              9.724555389327024
            ],
            [
              -82.9763313744016,
              9.708681226896616
            ],
            [
              -82.97851228672197,
              9.692310208770692
            ],
            [
              -82.98295799260572,
              9.670811699048679
            ]
          ]
        ]
      },
      "properties": {
        "node_id": "atlantic_railroad",
        "label_en": null,
        "label_es": null,
        "year_start": 1871,
        "year_end": 1972
      }
    }
  ]
}