{
"type": "FeatureCollection",
"name": "railroads_geometry",
"crs": { "type": "name", "properties": { "name": "urn:ogc:def:crs:OGC:1.3:CRS84" } },
"features": [
{ "type": "Feature", "properties": { "id": 1 }, "geometry": { "type": "MultiLineString", "coordinates": [ [ [ -83.029679845007379, 9.996633551811804 ], [ -83.033873907161933, 9.995373781119035 ], [ -83.032678599447891, 9.989838993031753 ], [ -83.040060148839856, 9.986968300922504 ], [ -83.056102436580971, 9.975547239115132 ], [ -83.064993848348578, 9.956215198731185 ], [ -83.037900206830287, 9.929693742490509 ], [ -83.038403494288829, 9.925231977758854 ], [ -83.049811343349162, 9.926884490305349 ], [ -83.054508692962216, 9.922092180945132 ], [ -83.065245492077835, 9.919282863546492 ], [ -83.064909967105478, 9.916308265927727 ], [ -83.048804768432049, 9.90705378960584 ], [ -83.045617281194623, 9.910524248834447 ], [ -83.033706144675733, 9.909202173458233 ], [ -83.027834457659381, 9.902095927022646 ], [ -83.02364039550487, 9.898625378651925 ], [ -83.022633820587799, 9.894658992737833 ], [ -83.004179947107829, 9.872181901732409 ], [ -82.998476022577677, 9.868215196860429 ], [ -82.988410273406799, 9.865570700404074 ], [ -82.94848280169559, 9.834992169873166 ], [ -82.922899022552897, 9.800030005560776 ], [ -82.915769116890203, 9.786804584910687 ], [ -82.91610464186256, 9.778869079706643 ], [ -82.917698385481273, 9.775397236604316 ], [ -82.92885459081235, 9.774405274774306 ], [ -82.931371028105048, 9.775727889890151 ], [ -82.933971346640874, 9.775479899956599 ], [ -82.935397327773416, 9.772173349840044 ], [ -82.933887465397802, 9.768205446318644 ], [ -82.939759152414098, 9.768949431832986 ], [ -82.944037095811694, 9.763410833113767 ], [ -82.943114402137724, 9.753986737014507 ], [ -82.945630839430436, 9.75192001363877 ], [ -82.948482801695505, 9.752002682819823 ], [ -82.954857776170414, 9.747042495677656 ], [ -82.958129144650954, 9.74621579064809 ], [ -82.962407088048579, 9.746133120032447 ], [ -82.962826494264007, 9.743570320786036 ], [ -82.962407088048579, 9.740180781872967 ], [ -82.962742613020936, 9.736377843583329 ], [ -82.966685031446175, 9.734228337564289 ], [ -82.983712923793561, 9.731830795299841 ], [ -82.985390548655388, 9.724555389327024 ], [ -82.976331374401596, 9.708681226896616 ], [ -82.978512286721966, 9.692310208770692 ], [ -82.982957992605719, 9.670811699048679 ] ] ] } },
{ "type": "Feature", "properties": { "id": 2 }, "geometry": { "type": "MultiLineString", "coordinates": [ [ [ -83.027988239938381, 9.998003460848471 ], [ -83.028225903460452, 9.997108546050978 ], [ -83.028827052369294, 9.996516524138469 ], [ -83.030155172051565, 9.996131020918108 ], [ -83.031553192769735, 9.996282468666344 ], [ -83.033160916595619, 9.995883197177891 ], [ -83.033678184261362, 9.995291173033728 ], [ -83.033804006126005, 9.994657843685943 ], [ -83.032587728101191, 9.990582477504956 ], [ -83.03286733224482, 9.989770151790347 ], [ -83.033468481153648, 9.989453481894412 ], [ -83.034048659751662, 9.988854561900517 ], [ -83.040255871740356, 9.986830617210686 ], [ -83.055585168915144, 9.975815731603145 ], [ -83.064923947312565, 9.956979414386446 ], [ -83.037942147451815, 9.930099980393956 ], [ -83.038193791181072, 9.925610679286965 ], [ -83.03934016817, 9.925032298594237 ], [ -83.040206941015242, 9.925803472624168 ], [ -83.050188808943048, 9.92740089876512 ], [ -83.054075306539573, 9.922608596962602 ], [ -83.058660814495198, 9.920845893601321 ], [ -83.065035788970079, 9.919634029538329 ], [ -83.065483155599892, 9.916328922948271 ], [ -83.063693689080651, 9.915998410455886 ], [ -83.048706906981749, 9.907625316170595 ], [ -83.046134548860337, 9.910049128609163 ], [ -83.035285908087261, 9.909938955705094 ], [ -83.031371450076378, 9.907735489851826 ], [ -83.028575408640023, 9.903879388994529 ], [ -83.027876398280952, 9.901538162794351 ], [ -83.025332000573869, 9.900326227377972 ], [ -83.02317904866787, 9.897544267795745 ], [ -83.023151088253499, 9.895065274052147 ], [ -83.007716939524826, 9.876665047102311 ], [ -83.006095235491728, 9.874626635271907 ], [ -83.004529452287372, 9.873469693211741 ], [ -83.003522877370287, 9.872202561528065 ], [ -82.998154477812477, 9.86851132404759 ], [ -82.989151224387413, 9.865481172808323 ], [ -82.948608623560247, 9.834572039708032 ], [ -82.924590627621953, 9.802309959706786 ], [ -82.922801161102669, 9.799995565045197 ], [ -82.915922899169303, 9.78665992895926 ], [ -82.915922899169303, 9.778614203568626 ], [ -82.917936049003472, 9.775638337990577 ], [ -82.924422865135824, 9.77552812023548 ], [ -82.929064293920163, 9.77475659492702 ], [ -82.931580731212875, 9.775803664554724 ], [ -82.934041247676873, 9.775473011344236 ], [ -82.935103743422687, 9.773489085177673 ], [ -82.935215585080144, 9.771890913826789 ], [ -82.934153089334345, 9.769741636801729 ], [ -82.934209010163045, 9.768584328037957 ], [ -82.940024776350668, 9.768804768112783 ], [ -82.943883313532851, 9.763073278719819 ], [ -82.942820817787023, 9.753979847957423 ], [ -82.94310042193068, 9.753318497857679 ], [ -82.946399750825577, 9.75172022969949 ], [ -82.948189217344833, 9.751995793721729 ], [ -82.955179320935713, 9.747366287922031 ], [ -82.959485224747709, 9.746374242603689 ], [ -82.962113503697864, 9.746319128888381 ], [ -82.963120078614978, 9.743563431513763 ], [ -82.962393107841564, 9.741331299956512 ], [ -82.962616791156506, 9.737225241191709 ], [ -82.965552634664675, 9.734469468735693 ], [ -82.987669322426257, 9.731879021893837 ], [ -82.990689047177511, 9.726036663798819 ], [ -82.985879855906987, 9.725044555110687 ], [ -82.976373315023366, 9.708068017150842 ], [ -82.978274623200122, 9.694012115312329 ] ] ] } }
]
}
